[{"OBJECT_NAME":"STARLINK-35036","OBJECT_ID":"2025-192C","EPOCH":"2026-03-09T22:00:01.999584","MEAN_MOTION":15.30157604,"ECCENTRICITY":0.0001095,"INCLINATION":53.1584,"RA_OF_ASC_NODE":231.3752,"ARG_OF_PERICENTER":74.8228,"MEAN_ANOMALY":79.2617,"EPHEMERIS_TYPE":0,"CLASSIFICATION_TYPE":"U","NORAD_CAT_ID":65406,"ELEMENT_SET_NO":999,"REV_AT_EPOCH":589,"BSTAR":0.0022319849,"MEAN_MOTION_DOT":0.0006625,"MEAN_MOTION_DDOT":0},{"OBJECT_NAME":"OBJECT L","OBJECT_ID":"2024-024L","EPOCH":"2026-03-09T22:36:05.522976","MEAN_MOTION":15.29373491,"ECCENTRICITY":0.00073185,"INCLINATION":97.3169,"RA_OF_ASC_NODE":137.7038,"ARG_OF_PERICENTER":167.6369,"MEAN_ANOMALY":192.5052,"EPHEMERIS_TYPE":0,"CLASSIFICATION_TYPE":"U","NORAD_CAT_ID":58927,"ELEMENT_SET_NO":999,"REV_AT_EPOCH":9318,"BSTAR":0.00043092344,"MEAN_MOTION_DOT":0.00012217,"MEAN_MOTION_DDOT":0}]
